OBJECT_NAME,OBJECT_ID,EPOCH,MEAN_MOTION,ECCENTRICITY,INCLINATION,RA_OF_ASC_NODE,ARG_OF_PERICENTER,MEAN_ANOMALY,EPHEMERIS_TYPE,CLASSIFICATION_TYPE,NORAD_CAT_ID,ELEMENT_SET_NO,REV_AT_EPOCH,BSTAR,MEAN_MOTION_DOT,MEAN_MOTION_DDOT
SHIJIAN-17 (SJ-17),2016-065A,2026-07-12T10:04:26.272128,0.99864412,.0001837,5.8143,72.2984,46.6973,160.7777,0,U,41838,999,3545,0,.85E-6,0
GOES 16,2016-071A,2026-07-12T14:43:29.931168,1.00270869,.0000527,0.3971,85.4987,99.9836,221.2050,0,U,41866,999,3535,0,-.91E-6,0
TIANLIAN 1-04,2016-072A,2026-07-12T19:28:56.139168,1.00270807,.0043971,0.9322,82.7502,90.3133,226.6570,0,U,41869,999,3555,0,.29E-6,0
WGS F8 (USA 272),2016-075A,2026-07-12T19:21:19.368288,1.00273187,.0000239,0.0171,38.3179,5.5517,326.9803,0,U,41879,999,3507,0,-.202E-5,0
FENGYUN 4A,2016-077A,2026-07-12T20:56:36.586752,1.00269406,.0008495,2.3842,79.9926,159.3753,129.3116,0,U,41882,999,3518,0,-.36E-5,0
ECHOSTAR 19,2016-079A,2026-07-12T11:20:19.966848,1.00269978,.00011161,0.0163,46.5964,72.9284,243.8151,0,U,41893,999,3495,0,-.137E-5,0
JCSAT-110A (JCSAT-15),2016-082A,2026-07-12T17:01:38.688384,1.00272449,.0000566,0.0041,101.6153,44.9464,149.5135,0,U,41903,999,3501,0,-.351E-5,0
STAR ONE D1,2016-082B,2026-07-12T11:24:04.608576,1.00270479,.00022863,0.0050,351.0943,125.3621,260.9246,0,U,41904,999,3502,0,-.21E-5,0
TJS-2,2017-001A,2026-07-12T21:03:47.746080,1.00270080,.0000812,0.8969,84.9814,111.3604,116.9112,0,U,41911,999,3497,0,-.8E-7,0
SBIRS GEO-4 (USA 273),2017-004A,2026-07-12T20:16:38.845920,1.00282283,.0002532,2.2910,43.9248,66.9772,145.5596,0,U,41937,999,3485,0,.125E-5,0
HISPASAT 36W-1,2017-006A,2026-07-12T09:55:07.747968,1.00269817,.00009783,0.0105,294.5422,175.6146,292.9324,0,U,41942,999,3449,0,-.243E-5,0
TELKOM 3S,2017-007A,2026-07-12T19:12:20.228832,1.00271518,.0001974,0.0137,75.4472,34.3358,226.9884,0,U,41944,999,3439,0,-.363E-5,0
INTELSAT 32E (IS-32E),2017-007B,2026-07-12T20:08:59.798400,1.00269813,.0000448,0.0255,42.1521,279.7592,227.8952,0,U,41945,999,3448,0,0,0
ECHOSTAR 23,2017-014A,2026-07-12T14:42:00.075168,1.00271367,.0002114,0.0041,94.9189,14.3675,291.8138,0,U,42070,999,3417,0,-.57E-6,0
WGS F9 (USA 275),2017-016A,2026-07-12T15:09:42.418080,1.00271965,.0000496,0.0252,21.3890,210.3028,274.2789,0,U,42075,999,3415,0,0,0
SES-10,2017-017A,2026-07-12T20:02:15.442944,1.00271037,.0002559,0.0157,40.4181,79.7713,44.2008,0,U,42432,999,3401,0,-.273E-5,0
CHINASAT 16 (SJ-13),2017-018A,2026-07-12T07:11:29.959584,1.00269643,.0004971,0.0894,88.8799,134.5834,285.1393,0,U,42662,999,3400,0,-.35E-5,0
KOREASAT 7,2017-023A,2026-07-12T19:11:42.789120,1.00272415,.0000952,0.0232,47.8345,96.9080,189.7664,0,U,42691,999,3362,0,-.362E-5,0
SGDC,2017-023B,2026-07-12T09:38:16.237248,1.00271287,.00021894,0.0149,54.6033,64.9187,240.4912,0,U,42692,999,3365,0,-.248E-5,0
GSAT-9,2017-024A,2026-07-12T19:06:20.803104,1.00268556,.0002318,0.0806,91.4991,30.1603,192.8948,0,U,42695,999,3355,0,-.286E-5,0
INMARSAT 5-F4,2017-025A,2026-07-12T18:19:38.521056,1.00271671,.0000527,0.0033,107.8982,107.3647,46.8119,0,U,42698,999,3353,0,.75E-6,0
SES-15,2017-026A,2026-07-12T14:36:30.600000,1.00267333,.000023,0.0257,329.9259,136.7880,273.7411,0,U,42709,999,768,0,.61E-6,0
QZS-2 (MICHIBIKI-2),2017-028A,2026-07-12T11:07:02.581248,1.00277448,.07577411,39.3903,242.7811,269.5677,87.1524,0,U,42738,999,788,0,-.98E-6,0
VIASAT-2,2017-029A,2026-07-12T11:28:04.226016,1.00271256,.00002084,0.0183,307.4697,277.6039,167.4344,0,U,42740,999,3345,0,-.264E-5,0
EUTELSAT 172B,2017-029B,2026-07-12T14:11:38.681952,1.00270777,.0000094,0.0256,127.0244,86.5072,101.8641,0,U,42741,999,3399,0,-.5E-7,0
GSAT-19,2017-031A,2026-07-12T18:52:08.366880,1.00271352,.0006202,0.0327,86.9619,0.6687,173.9679,0,U,42747,999,3340,0,.125E-5,0
ECHOSTAR 21,2017-032A,2026-07-12T18:41:34.191744,1.00272691,.0001958,1.7703,357.3470,109.7476,114.2275,0,U,42749,999,3335,0,.67E-6,0
BULGARIASAT-1,2017-038A,2026-07-12T18:39:11.921184,1.00271234,.0003146,0.0307,63.6765,63.1991,85.4654,0,U,42801,999,3310,0,0,0
HELLAS-SAT 3,2017-040A,2026-07-12T18:47:38.726304,1.00269990,.0003204,0.0449,43.6219,31.3572,176.5921,0,U,42814,999,3306,0,.152E-5,0
GSAT-17,2017-040B,2026-07-12T20:47:36.559968,1.00271220,.0002238,0.0662,88.3755,168.8496,78.9225,0,U,42815,999,3304,0,-.258E-5,0
INTELSAT 35E (IS-35E),2017-041A,2026-07-12T11:38:10.756608,1.00269882,.00015743,0.0174,42.2312,68.1142,320.0780,0,U,42818,999,3306,0,-.237E-5,0
COSMOS 2520,2017-046A,2026-07-12T18:51:30.928032,1.00269463,.0001025,0.0339,107.5644,346.9157,164.0476,0,U,42907,999,3265,0,.137E-5,0
