SHIJIAN-17 (SJ-17)      
1 41838U 16065A   26193.41974852  .00000085  00000+0  00000+0 0  9994
2 41838   5.8143  72.2984 0001837  46.6973 160.7777  0.99864412 35458
GOES 16                 
1 41866U 16071A   26193.61354087 -.00000091  00000+0  00000+0 0  9994
2 41866   0.3971  85.4987 0000527  99.9836 221.2050  1.00270869 35357
TIANLIAN 1-04           
1 41869U 16072A   26193.81176087  .00000029  00000+0  00000+0 0  9992
2 41869   0.9322  82.7502 0043971  90.3133 226.6570  1.00270807 35554
WGS F8 (USA 272)        
1 41879U 16075A   26193.80647417 -.00000202  00000+0  00000+0 0  9999
2 41879   0.0171  38.3179 0000239   5.5517 326.9803  1.00273187 35073
FENGYUN 4A              
1 41882U 16077A   26193.87264568 -.00000360  00000+0  00000+0 0  9999
2 41882   2.3842  79.9926 0008495 159.3753 129.3116  1.00269406 35183
ECHOSTAR 19             
1 41893U 16079A   26193.47245332 -.00000137  00000+0  00000+0 0  9999
2 41893   0.0163  46.5964 0001116  72.9284 243.8151  1.00269978 34959
JCSAT-110A (JCSAT-15)   
1 41903U 16082A   26193.70947556 -.00000351  00000+0  00000+0 0  9996
2 41903   0.0041 101.6153 0000566  44.9464 149.5135  1.00272449 35015
STAR ONE D1             
1 41904U 16082B   26193.47505334 -.00000210  00000+0  00000+0 0  9999
2 41904   0.0050 351.0943 0002286 125.3621 260.9246  1.00270479 35027
TJS-2                   
1 41911U 17001A   26193.87763595 -.00000008  00000+0  00000+0 0  9993
2 41911   0.8969  84.9814 0000812 111.3604 116.9112  1.00270080 34973
SBIRS GEO-4 (USA 273)   
1 41937U 17004A   26193.84489405  .00000125  00000+0  00000+0 0  9995
2 41937   2.2910  43.9248 0002532  66.9772 145.5596  1.00282283 34850
HISPASAT 36W-1          
1 41942U 17006A   26193.41328412 -.00000243  00000+0  00000+0 0  9998
2 41942   0.0105 294.5422 0000978 175.6146 292.9324  1.00269817 34495
TELKOM 3S               
1 41944U 17007A   26193.80023413 -.00000363  00000+0  00000+0 0  9990
2 41944   0.0137  75.4472 0001974  34.3358 226.9884  1.00271518 34394
INTELSAT 32E (IS-32E)   
1 41945U 17007B   26193.83958100  .00000000  00000+0  00000+0 0  9991
2 41945   0.0255  42.1521 0000448 279.7592 227.8952  1.00269813 34483
ECHOSTAR 23             
1 42070U 17014A   26193.61250087 -.00000057  00000+0  00000+0 0  9997
2 42070   0.0041  94.9189 0002114  14.3675 291.8138  1.00271367 34178
WGS F9 (USA 275)        
1 42075U 17016A   26193.63174095  .00000000  00000+0  00000+0 0  9997
2 42075   0.0252  21.3890 0000496 210.3028 274.2789  1.00271965 34150
SES-10                  
1 42432U 17017A   26193.83490096 -.00000273  00000+0  00000+0 0  9992
2 42432   0.0157  40.4181 0002559  79.7713  44.2008  1.00271037 34010
CHINASAT 16 (SJ-13)     
1 42662U 17018A   26193.29965231 -.00000350  00000+0  00000+0 0  9992
2 42662   0.0894  88.8799 0004971 134.5834 285.1393  1.00269643 34000
KOREASAT 7              
1 42691U 17023A   26193.79980080 -.00000362  00000+0  00000+0 0  9997
2 42691   0.0232  47.8345 0000952  96.9080 189.7664  1.00272415 33627
SGDC                    
1 42692U 17023B   26193.40157682 -.00000248  00000+0  00000+0 0  9993
2 42692   0.0149  54.6033 0002189  64.9187 240.4912  1.00271287 33652
GSAT-9                  
1 42695U 17024A   26193.79607411 -.00000286  00000+0  00000+0 0  9991
2 42695   0.0806  91.4991 0002318  30.1603 192.8948  1.00268556 33552
INMARSAT 5-F4           
1 42698U 17025A   26193.76364029  .00000075  00000+0  00000+0 0  9992
2 42698   0.0033 107.8982 0000527 107.3647  46.8119  1.00271671 33532
SES-15                  
1 42709U 17026A   26193.60868750  .00000061  00000+0  00000+0 0  9994
2 42709   0.0257 329.9259 0000230 136.7880 273.7411  1.00267333  7686
QZS-2 (MICHIBIKI-2)     
1 42738U 17028A   26193.46322432 -.00000098  00000+0  00000+0 0  9995
2 42738  39.3903 242.7811 0757741 269.5677  87.1524  1.00277448  7884
VIASAT-2                
1 42740U 17029A   26193.47782669 -.00000264  00000+0  00000+0 0  9997
2 42740   0.0183 307.4697 0000208 277.6039 167.4344  1.00271256 33459
EUTELSAT 172B           
1 42741U 17029B   26193.59141993 -.00000005  00000+0  00000+0 0  9993
2 42741   0.0256 127.0244 0000094  86.5072 101.8641  1.00270777 33990
GSAT-19                 
1 42747U 17031A   26193.78620795  .00000125  00000+0  00000+0 0  9997
2 42747   0.0327  86.9619 0006202   0.6687 173.9679  1.00271352 33407
ECHOSTAR 21             
1 42749U 17032A   26193.77886796  .00000067  00000+0  00000+0 0  9999
2 42749   1.7703 357.3470 0001958 109.7476 114.2275  1.00272691 33356
BULGARIASAT-1           
1 42801U 17038A   26193.77722131  .00000000  00000+0  00000+0 0  9993
2 42801   0.0307  63.6765 0003146  63.1991  85.4654  1.00271234 33102
HELLAS-SAT 3            
1 42814U 17040A   26193.78308711  .00000152  00000+0  00000+0 0  9993
2 42814   0.0449  43.6219 0003204  31.3572 176.5921  1.00269990 33062
GSAT-17                 
1 42815U 17040B   26193.86639537 -.00000258  00000+0  00000+0 0  9994
2 42815   0.0662  88.3755 0002238 168.8496  78.9225  1.00271220 33047
INTELSAT 35E (IS-35E)   
1 42818U 17041A   26193.48484672 -.00000237  00000+0  00000+0 0  9991
2 42818   0.0174  42.2312 0001574  68.1142 320.0780  1.00269882 33068
COSMOS 2520             
1 42907U 17046A   26193.78577463  .00000137  00000+0  00000+0 0  9997
2 42907   0.0339 107.5644 0001025 346.9157 164.0476  1.00269463 32654
